NORAD_CAT_ID,OBJECT_NAME,OBJECT_TYPE,EPOCH,MEAN_MOTION,ECCENTRICITY,INCLINATION,RA_OF_ASC_NODE,ARG_OF_PERICENTER,MEAN_ANOMALY,BSTAR,MEAN_MOTION_DOT,MEAN_MOTION_DDOT,TLE_LINE0,TLE_LINE1,TLE_LINE2,SEMIMAJOR_AXIS,PERIOD,APOGEE,PERIGEE,DECAYED
49757.0,STARLINK-3197,PAYLOAD,2022-12-29 07:47:20,15.08834067,0.0002236,53.2167,335.1313,31.3241,328.7884,-0.00011397,-2.101e-05,0.0,0 STARLINK-3197,1 49757U 21115AK  22363.32453988 -.00002101  00000-0 -11397-3 0  9990,2 49757  53.2167 335.1313 0002236  31.3241 328.7884 15.08834067 59594,6917.899,95.438,541.31,538.217,0.0
49757.0,STARLINK-3197,PAYLOAD,2022-12-30 07:38:07,15.08831223,0.0002313,53.2164,330.6702,35.7417,324.3729,7.2512e-05,8.66e-06,0.0,0 STARLINK-3197,1 49757U 21115AK  22364.31814146  .00000866  00000-0  72512-4 0  9998,2 49757  53.2164 330.6702 0002313  35.7417 324.3729 15.08831223 60854,6917.906999999997,95.438,541.372,538.172,0.0
49757.0,STARLINK-3197,PAYLOAD,2022-12-30 15:35:02,15.08843038,0.0002015,53.2193,329.1836,42.3646,317.7502,0.0001858,2.67e-05,0.0,0 STARLINK-3197,1 49757U 21115AK  22364.64933147  .00002670  00000-0  18580-3 0  9996,2 49757  53.2193 329.1836 0002015  42.3646 317.7502 15.08843038 60902,6917.871,95.437,541.13,538.342,0.0
49757.0,STARLINK-3197,PAYLOAD,2022-12-31 04:18:06,15.08857458,0.0002334,53.2173,326.8055,34.6088,325.5056,0.00035223,5.325e-05,0.0,0 STARLINK-3197,1 49757U 21115AK  22365.17923628  .00005325  00000-0  35223-3 0  9991,2 49757  53.2173 326.8055 0002334  34.6088 325.5056 15.08857458 60985,6917.8269999999975,95.436,541.307,538.077,0.0
49757.0,STARLINK-3197,PAYLOAD,2023-01-01 07:19:41,15.0882658,0.0002253,53.2171,321.7495,35.2977,324.8164,-0.00022222,-3.822e-05,0.0,0 STARLINK-3197,1 49757U 21115AK  23001.30533755 -.00003822  00000-0 -22222-3 0  9999,2 49757  53.2171 321.7495 0002253  35.2977 324.8164 15.08826580 61153,6917.920999999999,95.438,541.345,538.2280000000002,0.0
49757.0,STARLINK-3197,PAYLOAD,2023-01-01 13:41:13,15.08827794,0.0002243,53.2175,320.5604,33.4162,326.6971,-0.00030613,-5.156e-05,0.0,0 STARLINK-3197,1 49757U 21115AK  23001.57029753 -.00005156  00000-0 -30613-3 0  9991,2 49757  53.2175 320.5604 0002243  33.4162 326.6971 15.08827794 60086,6917.918000000002,95.438,541.3340000000002,538.231,0.0
49757.0,STARLINK-3197,PAYLOAD,2023-01-02 03:59:42,15.0884111,0.0002236,53.2171,317.8846,37.191,322.9237,-0.00016163,-2.860000000000001e-05,0.0,0 STARLINK-3197,1 49757U 21115AK  23002.16646259 -.00002860  00000-0 -16163-3 0  9996,2 49757  53.2171 317.8846 0002236  37.1910 322.9237 15.08841110 61288,6917.877,95.437,541.289,538.195,0.0
49757.0,STARLINK-3197,PAYLOAD,2023-01-02 13:32:00,15.08846245,0.0002323999999999,53.218,316.0997,37.1178,322.9975,-1.9711e-05,-6.02e-06,0.0,0 STARLINK-3197,1 49757U 21115AK  23002.56389596 -.00000602  00000-0 -19711-4 0  9993,2 49757  53.2180 316.0997 0002324  37.1178 322.9975 15.08846245 61340,6917.861,95.437,541.3340000000002,538.119,0.0
49757.0,STARLINK-3197,PAYLOAD,2023-01-02 21:28:57,15.08826506,0.0002322,53.2165,314.6107,32.3948,327.7186,0.0002742,4.077e-05,0.0,0 STARLINK-3197,1 49757U 21115AK  23002.89510669  .00004077  00000-0  27420-3 0  9999,2 49757  53.2165 314.6107 0002322  32.3948 327.7186 15.08826506 61390,6917.922,95.438,541.393,538.18,0.0
49757.0,STARLINK-3197,PAYLOAD,2023-01-03 03:50:29,15.08830751,0.0002320999999999,53.2169,313.4228,33.3916,326.7222,0.00028681,4.278e-05,0.0,0 STARLINK-3197,1 49757U 21115AK  23003.16006648  .00004278  00000-0  28681-3 0  9990,2 49757  53.2169 313.4228 0002321  33.3916 326.7222 15.08830751 60329,6917.909000000002,95.438,541.379,538.168,0.0
49757.0,STARLINK-3197,PAYLOAD,2023-01-04 02:05:54,15.08830082,0.0002203,53.2164,309.2609,38.4757,321.6392,1.9694e-05,2.5e-07,0.0,0 STARLINK-3197,1 49757U 21115AK  23004.08743253  .00000025  00000-0  19694-4 0  9993,2 49757  53.2164 309.2609 0002203  38.4757 321.6392 15.08830082 61575,6917.911,95.438,541.3,538.252,0.0
49757.0,STARLINK-3197,PAYLOAD,2023-01-04 13:13:35,15.08851749,0.0002169,53.2166,307.1786,36.4006,323.7134,0.00025573,3.785e-05,0.0,0 STARLINK-3197,1 49757U 21115AK  23004.55110243  .00003785  00000-0  25573-3 0  9990,2 49757  53.2166 307.1786 0002169  36.4006 323.7134 15.08851749 61644,6917.844,95.437,541.21,538.2090000000002,0.0
49757.0,STARLINK-3197,PAYLOAD,2023-01-05 13:04:21,15.08869152,0.0002228,53.2169,302.7173,38.8666,321.2486,0.00059614,9.22e-05,0.0,0 STARLINK-3197,1 49757U 21115AK  23005.54469059  .00009220  00000-0  59614-3 0  9995,2 49757  53.2169 302.7173 0002228  38.8666 321.2486 15.08869152 60685,6917.791,95.436,541.198,538.115,0.0
49757.0,STARLINK-3197,PAYLOAD,2023-01-06 12:55:08,15.088324900000002,0.0001818,53.2148,298.2587,22.0158,338.0912,-0.00030872,-5.197e-05,0.0,0 STARLINK-3197,1 49757U 21115AK  23006.53829649 -.00005197  00000-0 -30872-3 0  9996,2 49757  53.2148 298.2587 0001818  22.0158 338.0912 15.08832490 61940,6917.903,95.438,541.026,538.511,0.0
49757.0,STARLINK-3197,PAYLOAD,2023-01-06 20:52:05,15.08825969,0.0002279,53.2159,296.7716,37.7743,322.3409,-0.00012368,-2.255e-05,0.0,0 STARLINK-3197,1 49757U 21115AK  23006.86950252 -.00002255  00000-0 -12368-3 0  9999,2 49757  53.2159 296.7716 0002279  37.7743 322.3409 15.08825969 60886,6917.923000000002,95.438,541.365,538.212,0.0
49757.0,STARLINK-3197,PAYLOAD,2023-01-07 04:49:01,15.08831588,0.000227,53.216,295.285,37.764,322.3511,0.0010362,0.00016238,0.0,0 STARLINK-3197,1 49757U 21115AK  23007.20070768  .00016238  00000-0  10362-2 0  9998,2 49757  53.2160 295.2850 0002270  37.7640 322.3511 15.08831588 60932,6917.906,95.438,541.341,538.201,0.0
49757.0,STARLINK-3197,PAYLOAD,2023-01-08 04:39:48,15.08835937,0.000231,53.2162,290.8247,38.2821,321.8335,0.0003742,5.672e-05,0.0,0 STARLINK-3197,1 49757U 21115AK  23008.19431426  .00005672  00000-0  37420-3 0  9994,2 49757  53.2162 290.8247 0002310  38.2821 321.8335 15.08835937 62197,6917.893,95.438,541.356,538.16,0.0
49757.0,STARLINK-3197,PAYLOAD,2023-01-09 10:52:07,15.08852084,0.0002222,53.2173,285.175,29.7486,330.3632,0.00039673,6.034e-05,0.0,0 STARLINK-3197,1 49757U 21115AK  23009.45286883  .00006034  00000-0  39673-3 0  9994,2 49757  53.2173 285.1750 0002222  29.7486 330.3632 15.08852084 61274,6917.843000000002,95.437,541.246,538.1709999999998,0.0
49757.0,STARLINK-3197,PAYLOAD,2023-01-10 02:45:59,15.088431900000002,0.0002221,53.2161,282.2021,36.285,323.8292,0.00019424,2.805e-05,0.0,0 STARLINK-3197,1 49757U 21115AK  23010.11526986  .00002805  00000-0  19424-3 0  9994,2 49757  53.2161 282.2021 0002221  36.2850 323.8292 15.08843190 62488,6917.871,95.437,541.2719999999998,538.1990000000002,0.0
49757.0,STARLINK-3197,PAYLOAD,2023-01-10 10:42:55,15.08838934,0.0002237,53.2163,280.7151,34.8228,325.291,-3.1937e-05,-7.97e-06,0.0,0 STARLINK-3197,1 49757U 21115AK  23010.44647038 -.00000797  00000-0 -31937-4 0  9996,2 49757  53.2163 280.7151 0002237  34.8228 325.2910 15.08838934 61423,6917.884,95.438,541.2959999999998,538.201,0.0
49757.0,STARLINK-3197,PAYLOAD,2023-01-11 10:33:42,15.08831197,0.0002007,53.2146,276.255,35.6358,324.4768,-0.00010843,-2.013e-05,0.0,0 STARLINK-3197,1 49757U 21115AK  23011.44007532 -.00002013  00000-0 -10843-3 0  9991,2 49757  53.2146 276.2550 0002007  35.6358 324.4768 15.08831197 62680,6917.906999999998,95.438,541.161,538.384,0.0
49757.0,STARLINK-3197,PAYLOAD,2023-01-11 20:06:01,15.08828326,0.0002114,53.2169,274.468,33.3488,326.7637,-4.3563e-05,-9.81e-06,0.0,0 STARLINK-3197,1 49757U 21115AK  23011.83751941 -.00000981  00000-0 -43563-4 0  9992,2 49757  53.2169 274.4680 0002114  33.3488 326.7637 15.08828326 61631,6917.916,95.438,541.244,538.319,0.0
49757.0,STARLINK-3197,PAYLOAD,2023-01-12 11:59:53,15.08832748,0.0002045,53.2153,271.4956,40.5137,319.6007,4.9256e-05,4.96e-06,0.0,0 STARLINK-3197,1 49757U 21115AK  23012.49992074  .00000496  00000-0  49256-4 0  9993,2 49757  53.2153 271.4956 0002045  40.5137 319.6007 15.08832748 62840,6917.903,95.438,541.182,538.3530000000002,0.0
49757.0,STARLINK-3197,PAYLOAD,2023-01-12 21:32:12,15.08835522,0.0001927,53.2154,269.7117,41.7149,318.399,8.9315e-05,1.133e-05,0.0,0 STARLINK-3197,1 49757U 21115AK  23012.89736163  .00001133  00000-0  89315-4 0  9991,2 49757  53.2154 269.7117 0001927  41.7149 318.3990 15.08835522 61797,6917.894,95.438,541.092,538.4259999999998,0.0
49757.0,STARLINK-3197,PAYLOAD,2023-01-13 11:50:40,15.08837576,0.0002079,53.2147,267.0366,46.9775,313.1391,0.00018763,2.699e-05,0.0,0 STARLINK-3197,1 49757U 21115AK  23013.49352289  .00002699  00000-0  18763-3 0  9997,2 49757  53.2147 267.0366 0002079  46.9775 313.1391 15.08837576 61886,6917.888000000001,95.438,541.191,538.315,0.0
49757.0,STARLINK-3197,PAYLOAD,2023-01-13 18:12:13,15.08833412,0.0002072,53.2158,265.8467,47.5421,312.5746,0.0001131,1.512e-05,0.0,0 STARLINK-3197,1 49757U 21115AK  23013.75848519  .00001512  00000-0  11310-3 0  9996,2 49757  53.2158 265.8467 0002072  47.5421 312.5746 15.08833412 63035,6917.901,95.438,541.1990000000001,538.332,0.0
49757.0,STARLINK-3197,PAYLOAD,2023-01-14 22:49:11,15.08816667,0.0001758,53.2162,260.4936,59.5795,300.5371,-9.3331e-05,-1.772e-05,0.0,0 STARLINK-3197,1 49757U 21115AK  23014.95082706 -.00001772  00000-0 -93331-4 0  9991,2 49757  53.2162 260.4936 0001758  59.5795 300.5371 15.08816667 63213,6917.951999999999,95.439,541.033,538.601,0.0
49757.0,STARLINK-3197,PAYLOAD,2023-01-15 01:59:57,15.08818446,0.0001766999999999,53.2155,259.8992,55.2654,304.8504,-0.00015219,-2.708e-05,0.0,0 STARLINK-3197,1 49757U 21115AK  23015.08330933 -.00002708  00000-0 -15219-3 0  9992,2 49757  53.2155 259.8992 0001767  55.2654 304.8504 15.08818446 62127,6917.946,95.439,541.034,538.589,0.0
49757.0,STARLINK-3197,PAYLOAD,2023-01-15 22:39:56,15.08860858,0.0001826,53.2151,256.0336,54.6925,305.4237,0.00051846,7.978e-05,0.0,0 STARLINK-3197,1 49757U 21115AK  23015.94440639  .00007978  00000-0  51846-3 0  9990,2 49757  53.2151 256.0336 0001826  54.6925 305.4237 15.08860858 62252,6917.816999999999,95.436,540.945,538.418,0.0
